ORBCOMM FM103           
1 40091U 14040F   25354.05871105  .00000328  00000+0  10627-3 0  9990
2 40091  47.0041 219.7799 0001400  40.0676 320.0313 14.58544965591237
ORBCOMM FM114           
1 41179U 15081A   25353.73288611  .00000234  00000+0  86174-4 0  9999
2 41179  47.0037 130.2732 0001754 111.2864 248.8210 14.58563766531558
ORBCOMM FM119           
1 41180U 15081B   25354.14020429  .00000382  00000+0  11789-3 0  9991
2 41180  47.0014  37.7072 0001487 223.9677 136.1091 14.58513157532869
ORBCOMM FM105           
1 41181U 15081C   25354.18147737  .00000135  00000+0  82428-4 0  9993
2 41181  47.0019  60.6359 0000813  70.9617 289.1351 14.45410551527653
ORBCOMM FM110           
1 41182U 15081D   25354.06522534  .00000482  00000+0  13888-3 0  9991
2 41182  47.0011 128.2017 0002578 311.9272  48.1394 14.58593231531479
ORBCOMM FM118           
1 41183U 15081E   25354.09972911  .00000381  00000+0  11754-3 0  9991
2 41183  47.0032 128.3379 0003246 277.2990  82.7527 14.58585423531587
ORBCOMM FM112           
1 41184U 15081F   25353.41741370  .00000464  00000+0  13510-3 0  9994
2 41184  47.0000  40.0961 0000696 133.0760 227.0184 14.58589117532702
ORBCOMM FM113           
1 41185U 15081G   25353.53168633  .00000546  00000+0  15255-3 0  9992
2 41185  47.0016  39.9127 0000692 167.4235 192.6668 14.58586014532702
